[{"OBJECT_NAME":"TIANMU-1 06","OBJECT_ID":"2023-039D","EPOCH":"2026-03-09T21:39:44.418816","MEAN_MOTION":15.44646834,"ECCENTRICITY":0.00041882,"INCLINATION":97.5171,"RA_OF_ASC_NODE":239.4197,"ARG_OF_PERICENTER":113.2069,"MEAN_ANOMALY":246.962,"EPHEMERIS_TYPE":0,"CLASSIFICATION_TYPE":"U","NORAD_CAT_ID":55976,"ELEMENT_SET_NO":999,"REV_AT_EPOCH":16550,"BSTAR":0.00044260874,"MEAN_MOTION_DOT":0.0002056,"MEAN_MOTION_DDOT":0},{"OBJECT_NAME":"STARLINK-31530","OBJECT_ID":"2024-057C","EPOCH":"2026-03-09T22:00:01.999584","MEAN_MOTION":15.40184743,"ECCENTRICITY":0.00128486,"INCLINATION":42.9973,"RA_OF_ASC_NODE":183.7666,"ARG_OF_PERICENTER":5.4945,"MEAN_ANOMALY":123.5141,"EPHEMERIS_TYPE":0,"CLASSIFICATION_TYPE":"U","NORAD_CAT_ID":59322,"ELEMENT_SET_NO":999,"REV_AT_EPOCH":587,"BSTAR":0.0037392027,"MEAN_MOTION_DOT":0.00156829,"MEAN_MOTION_DDOT":0}]
